ORBCOMM FM05 [-]        
1 25117U 97084F   24074.33190711  .00002088  00000+0  66945-3 0  9996
2 25117  45.0162  49.6719 0001970  26.5777 333.5174 14.42310263375077
ORBCOMM FM06 [+]        
1 25118U 97084G   24074.22506183  .00002228  00000+0  71139-3 0  9996
2 25118  45.0155  50.3619 0001220  10.6217   3.6006 14.42314098375034
ORBCOMM FM07 [-]        
1 25119U 97084H   24074.21058315  .00002122  00000+0  68075-3 0  9993
2 25119  45.0151  50.9362 0002874  24.3114 335.7871 14.42241715375029
ORBCOMM FM03 [-]        
1 25158U 98007B   24074.44859895  .00001204  00000+0  49126-3 0  9995
2 25158 107.9794 272.9285 0048306 329.2782  30.5531 14.31926762358317
ORBCOMM FM04 [+]        
1 25159U 98007C   24074.44748093  .00001237  00000+0  50223-3 0  9999
2 25159 107.9777 275.8264 0043935 326.9873  32.8525 14.32182398358459
ORBCOMM FM17 [-]        
1 25413U 98046A   24074.25540557  .00001114  00000+0  45519-3 0  9995
2 25413  44.9933 264.5009 0002275  81.8077 278.3027 14.32897422337152
ORBCOMM FM18 [-]        
1 25414U 98046B   24074.42794188  .00001720  00000+0  64011-3 0  9997
2 25414  44.9929 191.9757 0004332 149.0824 211.0278 14.35583773338285
ORBCOMM FM19 [+]        
1 25415U 98046C   24074.48106153  .00001669  00000+0  62464-3 0  9995
2 25415  44.9938 193.0600 0003067 148.5489 335.5285 14.35419706338285
